ION SCV-004             
1 50993U 22002K   26068.68892644  .00006538  00000+0  23198-3 0  9998
2 50993  97.2961 128.2294 0007216   1.6783 358.4480 15.29369331230088
STARLINK-30358          
1 57879U 23144R   26067.98805295 -.00003016  00000+0 -10013-3 0  9996
2 57879  43.0019 288.8588 0001714 277.1057  82.9600 15.27573323137536
